STARLINK-4633           
1 53964U 22125A   25311.56756483 -.00001221  00000+0 -58628-4 0  9995
2 53964  53.2185  52.4992 0001380 100.4032 259.7116 15.08828092170884
STARLINK-4578           
1 53965U 22125B   25311.69730395  .00003377  00000+0  23014-3 0  9996
2 53965  53.2167  51.8893 0001493  91.7901 268.3262 15.08843366170902
STARLINK-4635           
1 53966U 22125C   25311.49395289 -.00001990  00000+0 -10703-3 0  9996
2 53966  53.2184  52.7544 0001039  94.9576 265.1534 15.08825103170876
STARLINK-4634           
1 53967U 22125D   25311.68899249  .00000025  00000+0  19656-4 0  9996
2 53967  53.2181  51.8378 0001308 102.4927 257.6211 15.08850187170905
STARLINK-4629           
1 53968U 22125E   25311.47921149  .00000009  00000+0  18674-4 0  9990
2 53968  53.2181  52.6626 0001230  94.0196 266.0937 15.08830859170878
STARLINK-4468           
1 53969U 22125F   25311.68530039 -.00000786  00000+0 -31344-4 0  9991
2 53969  53.2186  51.8176 0001023  86.7831 273.3278 15.08834095170908
STARLINK-4567           
1 53970U 22125G   25311.48888569 -.00000985  00000+0 -43805-4 0  9991
2 53970  53.2194  47.7384 0001885 118.8870 241.2312 15.08827679170958
STARLINK-4639           
1 53971U 22125H   25311.56740176  .00082164  00000+0  14353-2 0  9993
2 53971  53.2158  18.8251 0002817   2.9761 357.1266 15.49983965171366
STARLINK-5156           
1 53973U 22125K   25311.54176809 -.00000744  00000+0 -28666-4 0  9999
2 53973  53.2173  52.3431 0001212  95.0018 265.1113 15.08828838170881
STARLINK-5159           
1 53974U 22125L   25311.44421066  .00000670  00000+0  60204-4 0  9997
2 53974  53.2171  32.5020 0001290  95.8774 264.2365 15.08832533171154
STARLINK-5137           
1 53975U 22125M   25311.64338785 -.00000076  00000+0  13304-4 0  9995
2 53975  53.2183  46.5816 0001252  86.1544 273.9592 15.08834315170970
STARLINK-5134           
1 53976U 22125N   25311.62459647  .00000904  00000+0  74893-4 0  9994
2 53976  53.2189  32.2105 0001189  56.8418 303.2688 15.08841929171178
STARLINK-5094           
1 53977U 22125P   25311.49626067 -.00000273  00000+0  95042-6 0  9993
2 53977  53.2174  47.7775 0001171  88.6812 271.4315 15.08823125170944
STARLINK-5148           
1 53978U 22125Q   25311.47782032  .00002550  00000+0  17824-3 0  9995
2 53978  53.2217  47.6671 0002126 118.0025 242.1183 15.08850508170945
STARLINK-5123           
1 53979U 22125R   25311.48519757 -.00002542  00000+0 -14168-3 0  9990
2 53979  53.2174  47.7096 0001665 104.3047 255.8131 15.08831933170944
STARLINK-5133           
1 53980U 22125S   25311.65813547 -.00002813  00000+0 -15880-3 0  9998
2 53980  53.2193  46.6613 0001184  86.4691 273.6436 15.08818367170976
STARLINK-5149           
1 53981U 22125T   25311.45896507  .00000108  00000+0  24865-4 0  9991
2 53981  53.2189  32.6108 0001409 114.8774 245.2365 15.08824556171158
STARLINK-5120           
1 53982U 22125U   25311.48750770 -.00000511  00000+0 -13997-4 0  9990
2 53982  53.2188  42.7419 0001491  94.5893 265.5270 15.08827058171006
STARLINK-5103           
1 53983U 22125V   25311.66504343 -.00000096  00000+0  12036-4 0  9994
2 53983  53.2185  31.7448 0001342  93.5040 266.6106 15.08829198171188
STARLINK-5142           
1 53984U 22125W   25311.49857919 -.00002686  00000+0 -15082-3 0  9997
2 53984  53.2183  42.8104 0001332  91.4227 268.6917 15.08814051171018
STARLINK-5147           
1 53985U 22125X   25311.63840669  .00002821  00000+0  19518-3 0  9995
2 53985  53.2162  42.2625 0001525  76.4990 283.6172 15.08852825171035
STARLINK-5119           
1 53986U 22125Y   25311.65030701 -.00002413  00000+0 -13367-3 0  9991
2 53986  53.2187  31.6579 0001150 106.5488 253.5631 15.08818122171177
STARLINK-5113           
1 53988U 22125AA  25311.62735106  .00000383  00000+0  42171-4 0  9999
2 53988  53.2179  42.1945 0001372  98.8022 261.3126 15.08834175171023
STARLINK-5118           
1 53991U 22125AD  25311.61353296 -.00000067  00000+0  13865-4 0  9996
2 53991  53.2175  32.0705 0001502  78.5263 281.5897 15.08834468171161
STARLINK-5108           
1 53992U 22125AE  25311.55009043 -.00004700  00000+0 -27772-3 0  9998
2 53992  53.2176  42.4218 0001341 103.7762 256.3379 15.08794561171011
STARLINK-5121           
1 53993U 22125AF  25311.39407860 -.00000070  00000+0  13688-4 0  9997
2 53993  53.2181  37.8794 0000501 186.0099 174.0887 15.08840462171066
STARLINK-5125           
1 53994U 22125AG  25311.67149448 -.00001213  00000+0 -58138-4 0  9994
2 53994  53.2184  41.7605 0001038  65.9513 294.1588 15.08827582171045
STARLINK-5097           
1 53995U 22125AH  25311.67884961 -.00002524  00000+0 -14059-3 0  9990
2 53995  53.2181  41.8082 0001357  89.9171 270.1976 15.08835839171031
STARLINK-5131           
1 53996U 22125AJ  25311.53532227 -.00000610  00000+0 -20249-4 0  9994
2 53996  53.2199  42.3320 0001290  86.1220 273.9920 15.08831934171023
STARLINK-5130           
1 53997U 22125AK  25311.63566639 -.00000005  00000+0  17793-4 0  9997
2 53997  53.2183  32.2658 0001368 105.4587 254.6556 15.08794627171170
STARLINK-5128           
1 53998U 22125AL  25311.52795361 -.00001040  00000+0 -47281-4 0  9998
2 53998  53.2186  42.2844 0001360  90.3513 269.7635 15.08821323171028
STARLINK-5079           
1 53999U 22125AM  25311.67517083  .00001408  00000+0  10658-3 0  9991
2 53999  53.2173  41.7798 0001398  83.9091 276.2060 15.08826781171047
STARLINK-5088           
1 54000U 22125AN  25311.49948802 -.00000734  00000+0 -27997-4 0  9990
2 54000  53.2216  32.8388 0002072  76.4005 283.7218 15.08828324171152
STARLINK-5109           
1 54002U 22125AQ  25311.45526816  .00003124  00000+0  21438-3 0  9992
2 54002  53.2189  32.5892 0001505 114.2657 245.8493 15.08827684171156
STARLINK-5114           
1 54003U 22125AR  25311.66411713  .00000407  00000+0  43672-4 0  9991
2 54003  53.2178  41.7112 0001581 104.3266 255.7902 15.08832469171042
STARLINK-5129           
1 54004U 22125AS  25311.45433927  .00000495  00000+0  49217-4 0  9998
2 54004  53.2184  42.5360 0001786  94.0329 266.0868 15.08836307171014
STARLINK-5135           
1 54005U 22125AT  25311.45802411  .00004498  00000+0  30067-3 0  9996
2 54005  53.2170  42.5600 0001580  90.2880 269.8294 15.08823148171012
STARLINK-5096           
1 54006U 22125AU  25311.64201096 -.00000133  00000+0  97603-5 0  9994
2 54006  53.2183  41.5852 0001329  95.1780 264.9364 15.08833327171035
STARLINK-5132           
1 54007U 22125AV  25311.51690042 -.00001919  00000+0 -10248-3 0  9996
2 54007  53.2202  42.2168 0001582  90.8218 269.2955 15.08839653171026
STARLINK-5145           
1 54008U 22125AW  25311.64661648  .00000421  00000+0  44519-4 0  9995
2 54008  53.2177  31.6352 0001428  96.4402 263.6753 15.08833428171186
STARLINK-5099           
1 54009U 22125AX  25311.64568294  .00002347  00000+0  16545-3 0  9995
2 54009  53.2192  41.6041 0001315  91.8293 268.2850 15.08849715171042
STARLINK-5127           
1 54010U 22125AY  25311.63925046 -.00000596  00000+0 -19391-4 0  9997
2 54010  53.2181  31.5975 0001222  93.7531 266.3601 15.08831054171184
STARLINK-5124           
1 54011U 22125AZ  25311.62827924  .00002303  00000+0  16267-3 0  9997
2 54011  53.2197  32.2232 0001231 115.4457 244.6662 15.08847496171177
STARLINK-5126           
1 54012U 22125BA  25311.60248505 -.00000128  00000+0  10081-4 0  9991
2 54012  53.2200  32.0671 0001537  83.9637 276.1530 15.08829609171176
STARLINK-5098           
1 54013U 22125BB  25311.60984319 -.00000968  00000+0 -42769-4 0  9993
2 54013  53.2185  32.1099 0001412  70.8830 289.2315 15.08831253171170
STARLINK-5055           
1 54015U 22125BD  25311.60617696 -.00002268  00000+0 -12452-3 0  9996
2 54015  53.2188  32.0851 0001438  73.5048 286.6102 15.08825598171179
STARLINK-5195           
1 54051U 22136A   25311.82884470  .00000121  00000+0  25710-4 0  9994
2 54051  53.2138 171.4200 0001404  91.6102 268.5051 15.08839080168444
STARLINK-5189           
1 54052U 22136B   25310.91982444  .00000818  00000+0  69475-4 0  9993
2 54052  53.2156 135.0719 0001414  86.1483 273.9671 15.08844620168879
STARLINK-5176           
1 54053U 22136C   25311.82515972  .00000979  00000+0  79617-4 0  9990
2 54053  53.2168 171.3991 0001488  87.2096 272.9066 15.08840491168443
STARLINK-5163           
1 54054U 22136D   25311.35410622  .00000775  00000+0  66771-4 0  9996
2 54054  53.2172 173.4337 0001573  87.4708 272.6465 15.08847287168375
STARLINK-5158           
1 54055U 22136E   25311.62275425  .00003686  00000+0  24949-3 0  9991
2 54055  53.2142 172.2667 0001960  91.7330 268.3887 15.08848957168415
STARLINK-5226           
1 54056U 22136F   25311.63372443 -.00000093  00000+0  12220-4 0  9991
2 54056  53.2159 171.6356 0001467  87.6257 272.4903 15.08839764168428
STARLINK-5167           
1 54058U 22136H   25311.60797353  .00003998  00000+0  26889-3 0  9992
2 54058  53.2175 172.1744 0002163 110.7471 249.3753 15.08875431168411
STARLINK-5173           
1 54059U 22136J   25311.61169810  .00001899  00000+0  13737-3 0  9991
2 54059  53.2139 172.1995 0001492  90.5413 269.5750 15.08844233168412
STARLINK-5169           
1 54060U 22136K   25311.50401360 -.00000034  00000+0  15949-4 0  9999
2 54060  53.2148 142.2896 0001701  96.6601 263.4585 15.08837893168829
STARLINK-5209           
1 54061U 22136L   25311.83383303  .00000256  00000+0  34189-4 0  9994
2 54061  53.2170 135.7640 0001388  89.9834 270.1317 15.08835411168948
STARLINK-5170           
1 54062U 22136M   25311.33935588  .00005439  00000+0  35931-3 0  9991
2 54062  53.2131 173.3430 0001575  79.7251 280.3918 15.08863110168373
STARLINK-5225           
1 54063U 22136N   25311.60064520  .00000052  00000+0  21339-4 0  9995
2 54063  53.2183 172.1328 0000925  82.2615 277.8482 15.08841209168412
STARLINK-5172           
1 54064U 22136P   25311.48521553  .00001024  00000+0  82384-4 0  9993
2 54064  53.2156 127.8959 0001429  90.5342 269.5814 15.08842106169021
